GLOBALSTAR M068         
1 32266U 07048D   24320.14994488 -.00000051  00000+0  29293-3 0  9990
2 32266  51.9882 234.7063 0001706  42.3964 106.1206 12.62808123790804
GLOBALSTAR M079         
1 37188U 10054A   24319.51341980 -.00000102  00000+0  85223-5 0  9995
2 37188  52.0047  73.2865 0000923 129.5801 310.3765 12.62267180649344
GLOBALSTAR M074         
1 37189U 10054B   24319.62352425 -.00000106  00000+0 -15100-4 0  9995
2 37189  52.0023  72.3036 0000560 112.4466 350.0357 12.62258966650032
GLOBALSTAR M076         
1 37190U 10054C   24319.81021024 -.00000117  00000+0 -71301-4 0  9993
2 37190  52.0037  71.8914 0000610 142.2019 326.2195 12.62273503650061
GLOBALSTAR M077         
1 37191U 10054D   24319.39483306 -.00000081  00000+0  12913-3 0  9994
2 37191  52.0096  29.9513 0000486 118.8098 321.4725 12.62266927650027
GLOBALSTAR M075         
1 37192U 10054E   24319.74246253 -.00000095  00000+0  49246-4 0  9997
2 37192  51.9931 114.4724 0000821 100.8960   1.1365 12.62269066648767
GLOBALSTAR M073         
1 37193U 10054F   24320.20566929 -.00000093  00000+0  61813-4 0  9998
2 37193  52.0083  26.7179 0000450 135.9451 271.8825 12.62272446650866
GLOBALSTAR M083         
1 37739U 11033A   24320.48197330 -.00000079  00000+0  13564-3 0  9991
2 37739  51.9875 334.9022 0000473 100.8876  63.2445 12.62267952620221
GLOBALSTAR M088         
1 37740U 11033B   24320.21474810 -.00000076  00000+0  15779-3 0  9992
2 37740  51.9728 241.3860 0000833  71.4145  78.5837 12.62265062615669
GLOBALSTAR M091         
1 37741U 11033C   24320.15109729 -.00000060  00000+0  24468-3 0  9998
2 37741  51.9984 204.7550 0001183  85.7865  73.3419 12.62270607616413
GLOBALSTAR M085         
1 37742U 11033D   24320.58585205 -.00000079  00000+0  13883-3 0  9992
2 37742  51.9840 154.6564 0001258  97.2217 299.7156 12.62269391617214
GLOBALSTAR M081         
1 37743U 11033E   24319.75068696 -.00000057  00000+0  25965-3 0  9990
2 37743  51.9930 159.8546 0001107 106.6643 333.1583 12.62263789616764
GLOBALSTAR M089         
1 37744U 11033F   24320.20662145 -.00000107  00000+0 -16051-4 0  9996
2 37744  51.9911 112.7336 0000638 109.3189  62.4497 12.62272387617910
GLOBALSTAR M084         
1 38040U 11080A   24319.50259613 -.00000066  00000+0  20955-3 0  9991
2 38040  52.0026 342.0526 0000156  19.4942 131.9217 12.62270507595550
GLOBALSTAR M080         
1 38041U 11080B   24320.08727507 -.00000071  00000+0  18283-3 0  9996
2 38041  52.0077 341.8051 0000164 260.7646 148.2594 12.62268482595893
GLOBALSTAR M082         
1 38042U 11080C   24320.25101377 -.00000095  00000+0  48559-4 0  9993
2 38042  52.0081 296.7298 0000943  70.7477 302.9801 12.62269555596653
GLOBALSTAR M092         
1 38043U 11080D   24319.77735284 -.00000091  00000+0  68934-4 0  9994
2 38043  52.0109  28.5351 0000420  99.6674  40.7504 12.62269373595086
GLOBALSTAR M090         
1 38044U 11080E   24320.19797097 -.00000092  00000+0  67828-4 0  9995
2 38044  51.9888 290.9742 0000695  71.8027 301.2381 12.62270680596639
GLOBALSTAR M086         
1 38045U 11080F   24320.07987816 -.00000093  00000+0  62057-4 0  9993
2 38045  51.9902 291.8678 0000574 179.3856 257.2992 12.62270106596625
GLOBALSTAR M097         
1 39072U 13005A   24320.08981687 -.00000055  00000+0  27320-3 0  9995
2 39072  52.0036 206.1693 0000986  89.0489 271.0491 12.62267299543852
GLOBALSTAR M093         
1 39073U 13005B   24319.58795549 -.00000059  00000+0  25232-3 0  9993
2 39073  51.9797 201.3411 0001131  90.3024 269.7972 12.62267626543787
GLOBALSTAR M094         
1 39074U 13005C   24320.45905304 -.00000109  00000+0 -31602-4 0  9990
2 39074  51.9940 112.8537 0001130 116.8263 243.2720 12.62265420545400
GLOBALSTAR M096         
1 39075U 13005D   24319.52201823 -.00000058  00000+0  25469-3 0  9997
2 39075  52.0049 164.0561 0001272  98.4257 261.6754 12.62264810544530
GLOBALSTAR M078         
1 39076U 13005E   24320.28699604 -.00000017  00000+0  48153-3 0  9991
2 39076  51.9870 246.5248 0001664  68.0184 292.0859 12.62267987543111
GLOBALSTAR M095         
1 39077U 13005F   24320.07631720 -.00000072  00000+0  17487-3 0  9991
2 39077  51.9798 244.4728 0001317  79.8843 280.2172 12.62268029543090
GLOBALSTAR M087         
1 52888U 22064A   24319.53846889 -.00000107  00000+0  38900-4 0  9997
2 52888  51.9782  44.2138 0034889 336.9069  23.0259 13.30669456117648
